satname,norad_id,inclination_deg,eccentricity,mean_motion_rev_per_day,perigee_km,apogee_km,l1,l2
STARLINK-1493,45759,53.056,0.0001388,15.06443055,546.1183836425971,548.0408237717857,1 45759U 20038AF  25334.20022995 -.00008899  00000+0 -57859-3 0  9991,2 45759  53.0560 303.2403 0001388 102.6770 257.4374 15.06443055301479
STARLINK-1494,45760,53.0534,0.0005609,15.54128616,400.88233268605563,408.49130444572165,1 45760U 20038AG  25334.27306040  .00046014  00000+0  69882-3 0  9994,2 45760  53.0534 278.2349 0005609  97.9899 262.1748 15.54128616301845
STARLINK-1502,45764,53.056,0.0001894,15.0639604,545.9120314789261,548.5353581101144,1 45764U 20038AL  25334.63150707 -.00000293  00000+0 -78928-6 0  9990,2 45764  53.0560 301.3096 0001894  87.5572 272.5634 15.06396040301552
STARLINK-1470,45772,53.0473,0.0006586,15.20038346,501.1911271350609,510.25854994878773,1 45772U 20038AU  25334.56978326  .00026804  00000+0  12373-2 0  9998,2 45772  53.0473 271.4221 0006586  33.7761 326.3652 15.20038346301968
STARLINK-1482,45773,53.0546,0.0001083,15.06397158,546.4702520804949,547.9702844648018,1 45773U 20038AV  25334.86188032 -.00000635  00000+0 -23760-4 0  9999,2 45773  53.0546 280.2722 0001083  83.3259 276.7853 15.06397158301867
STARLINK-1496,45780,53.0535,0.0002415,15.06410433,545.5071185257821,548.8520464351204,1 45780U 20038BC  25334.82870280  .00002120  00000+0  16113-3 0  9998,2 45780  53.0535 280.4224 0002415  82.6299 277.4964 15.06410433301849
STARLINK-1497,45781,53.0354,0.0007226,15.63723882,372.0301539198781,381.79254979798407,1 45781U 20038BD  25334.91670139  .00162652  00000+0  16801-2 0  9990,2 45781  53.0354 214.0330 0007226  83.7438  57.9704 15.63723882  5990
STARLINK-1510,45784,53.0259,0.0003326,15.83674394,317.83210383674395,322.2877444306778,1 45784U 20038BG  25334.91670139  .00205013  00000+0  89282-3 0  9996,2 45784  53.0259 186.2061 0003326 169.9761  13.6733 15.83674394  6044
STARLINK-1513,45786,53.0555,0.00015,15.06399168,546.1753052334352,548.2529105658059,1 45786U 20038BJ  25334.12837403  .00000580  00000+0  57863-4 0  9993,2 45786  53.0555 283.5665 0001500  89.7869 270.3292 15.06399168301752
STARLINK-1522,46027,53.0532,0.000142,15.06397135,546.2369380224545,548.2037395066636,1 46027U 20055A   25334.37442253  .00002226  00000+0  16831-3 0  9991,2 46027  53.0532 212.4610 0001420  90.4959 269.6193 15.06397135293918
STARLINK-1523,46028,53.0549,0.000161,15.0639487,546.1122970448505,548.3422643432341,1 46028U 20055B   25334.85359939  .00001364  00000+0  11048-3 0  9990,2 46028  53.0549 210.3121 0001610  86.1229 273.9944 15.06394870294000
STARLINK-1526,46029,53.0527,0.0001559,15.06397138,546.140666362282,548.2999927776418,1 46029U 20055C   25334.84622473  .00000830  00000+0  74640-4 0  9991,2 46029  53.0527 210.3392 0001559  83.2719 276.8447 15.06397138293998
STARLINK-1555,46032,53.0548,0.0001586,15.06388766,546.1476230022436,548.344354486273,1 46032U 20055F   25334.36705213  .00002746  00000+0  20323-3 0  9992,2 46032  53.0548 212.4926 0001586  75.4752 284.6413 15.06388766293921
STARLINK-1556,46033,53.0536,0.0001784,15.06404068,545.9636101737542,548.4345700907143,1 46033U 20055G   25334.08323293  .00007695  00000+0  53486-3 0  9990,2 46033  53.0536 213.7686 0001784  87.3232 272.7961 15.06404068293853
STARLINK-1557,46034,53.0532,0.0001384,15.0640155,546.2483398326449,548.1652749985378,1 46034U 20055H   25334.08690758  .00001336  00000+0  10859-3 0  9997,2 46034  53.0532 213.7504 0001384  92.5478 267.5670 15.06401550293857
STARLINK-1558,46035,53.0534,0.0001616,15.06409416,546.0635677413275,548.3018310681755,1 46035U 20055J   25334.09428633  .00004893  00000+0  34706-3 0  9998,2 46035  53.0534 213.7210 0001616  91.0111 269.1063 15.06409416293886
STARLINK-1560,46036,53.0534,0.0001684,15.06407951,546.0209647821257,548.3534139691064,1 46036U 20055K   25334.07954758  .00005851  00000+0  41127-3 0  9999,2 46036  53.0534 213.7879 0001684  85.5807 274.5375 15.06407951293881
STARLINK-1567,46038,53.0528,0.0001537,15.06404088,546.1346046877588,548.263452983023,1 46038U 20055M   25334.35598960  .00002318  00000+0  17447-3 0  9994,2 46038  53.0528 212.5438 0001537  91.1117 269.0048 15.06404088293916
STARLINK-1569,46039,53.0546,0.0001607,15.06409712,546.0688934870732,548.294690946891,1 46039U 20055N   25333.96528017  .00003078  00000+0  22537-3 0  9997,2 46039  53.0546 214.2997 0001607  91.8907 268.2266 15.06409712293853
STARLINK-1582,46043,53.0538,0.0001568,15.06403628,546.1145457527391,548.286331573504,1 46043U 20055S   25334.10534084  .00001702  00000+0  13309-3 0  9999,2 46043  53.0538 213.6690 0001568 106.8255 253.2906 15.06403628293878
STARLINK-1591,46045,53.053,0.0001399,15.06396413,546.2536937972018,548.1914093997384,1 46045U 20055U   25334.39653796  .00001276  00000+0  10455-3 0  9999,2 46045  53.0530 212.3629 0001399  87.3074 272.8076 15.06396413293906
STARLINK-1524,46047,53.0529,0.0001489,15.06417925,546.1254447195488,548.1877971598642,1 46047U 20055W   25334.08414859  .00001215  00000+0  10043-3 0  9998,2 46047  53.0529 203.7654 0001489 108.6682 251.4469 15.06417925294014
STARLINK-1527,46048,53.0535,0.0001558,15.06411399,546.0976580030501,548.2555857276238,1 46048U 20055X   25334.08046643  .00003475  00000+0  25200-3 0  9992,2 46048  53.0535 203.7815 0001558  93.9805 266.1362 15.06411399293991
STARLINK-1540,46051,53.0531,0.0001599,15.06391108,546.131443179509,548.3461783637949,1 46051U 20055AA  25334.77710897  .00000159  00000+0  29563-4 0  9994,2 46051  53.0531 200.6544 0001599  90.0660 270.0513 15.06391108294132
STARLINK-1541,46052,53.0545,0.0001458,15.06400469,546.2004049110265,548.2198361313713,1 46052U 20055AB  25334.36428618  .00001896  00000+0  14613-3 0  9995,2 46052  53.0545 202.5058 0001458  86.1233 273.9923 15.06400469294032
STARLINK-1543,46053,53.0531,0.0001572,15.06393479,546.1428760010713,548.3202118712852,1 46053U 20055AC  25334.36797451  .00002167  00000+0  16436-3 0  9997,2 46053  53.0531 202.4888 0001572  88.9692 271.1477 15.06393479294063
STARLINK-1548,46054,53.0516,0.0001227,15.06397197,546.3704074207408,548.0698900650423,1 46054U 20055AD  25334.77342466  .00000523  00000+0  53972-4 0  9996,2 46054  53.0516 200.6701 0001227  91.7600 268.3529 15.06397197294123
STARLINK-1554,46055,53.0539,0.0001593,15.06404622,546.094186441509,548.3005979788668,1 46055U 20055AE  25334.02886598  .00003737  00000+0  26958-3 0  9997,2 46055  53.0539 204.0103 0001593  90.7637 269.3535 15.06404622294016
